GPS BIIR-2  (PRN 13)    
1 24876C 97035A   22177.71090278 -.00000000  00000-0  00000-0 0  1773
2 24876  55.5141 155.3134 0058599  50.9820 219.7072  2.00563292    10
GPS BIIR-4  (PRN 20)    
1 26360C 00025A   22177.71090278 -.00000000  00000-0  00000-0 0  1776
2 26360  54.0639  78.4836 0047576 183.9378 175.5515  2.00571942    10
GPS BIIR-6  (PRN 22)    
1 26605C 00071A   22177.71090278 -.00000000  00000-0  00000-0 0  1779
2 26605  55.0977 152.3023 0136559 254.4340 234.1175  2.00559523    16
GPS BIIR-8  (PRN 16)    
1 27663C 03005A   22177.71090278  .00000000  00000-0  00000-0 0  1773
2 27663  55.5038 272.6957 0125467  41.1482 298.1808  2.00564469    18
GPS BIIR-9  (PRN 21)    
1 27704C 03010A   22177.71090278 -.00000000  00000-0  00000-0 0  1776
2 27704  55.0288  22.9302 0244536 306.3597 249.4281  2.00556903    16
GPS BIIR-11 (PRN 19)    
1 28190C 04009A   22177.71090278  .00000000  00000-0  00000-0 0  1774
2 28190  56.0000 333.6782 0090685 121.1322  13.7907  2.00560646    12
GPS BIIR-13 (PRN 02)    
1 28474C 04045A   22177.71090278 -.00000000  00000-0  00000-0 0  1770
2 28474  55.3556  23.0709 0206111 279.1221 125.6560  2.00562615    15
GPS BIIRM-1 (PRN 17)    
1 28874C 05038A   22177.71090278  .00000000  00000-0  00000-0 0  1776
2 28874  56.0652 331.1134 0137417 274.4299 243.0796  2.00576261    12
GPS BIIRM-2 (PRN 31)    
1 29486C 06042A   22177.71090278  .00000000  00000-0  00000-0 0  1772
2 29486  54.7156 208.9053 0103430  21.5710  51.8105  2.00553104    14
GPS BIIRM-3 (PRN 12)    
1 29601C 06052A   22177.71090278  .00000000  00000-0  00000-0 0  1772
2 29601  55.5107 271.6339 0083665  74.5983  42.6727  2.00551934    16
GPS BIIRM-4 (PRN 15)    
1 32260C 07047A   22177.71090278 -.00000000  00000-0  00000-0 0  1773
2 32260  53.3181 140.1621 0139784  62.4611 187.5303  2.00574501    15
GPS BIIRM-5 (PRN 29)    
1 32384C 07062A   22177.71090278  .00000000  00000-0  00000-0 0  1776
2 32384  56.1846 331.8756 0020782 137.6561 241.9025  2.00563070    10
GPS BIIRM-6 (PRN 07)    
1 32711C 08012A   22177.71090278  .00000000  00000-0  00000-0 0  1776
2 32711  54.4759 207.8386 0164369 231.1460  78.2654  2.00565561    13
GPS BIIRM-8 (PRN 05)    
1 35752C 09043A   22177.71090278 -.00000000  00000-0  00000-0 0  1770
2 35752  55.0764  85.1552 0058786  58.9420 267.9716  2.00555693    13
GPS BIIF-1  (PRN 25)    
1 36585C 10022A   22177.71090278  .00000000  00000-0  00000-0 0  1773
2 36585  54.7942 267.1464 0102777  57.0063  27.3019  2.00566067    10
GPS BIIF-2  (PRN 01)    
1 37753C 11036A   22177.71090278 -.00000000  00000-0  00000-0 0  1778
2 37753  56.6108  28.3421 0118118  52.2406 116.9196  2.00565845    11
GPS BIIF-3  (PRN 24)    
1 38833C 12053A   22177.71090278  .00000000  00000-0  00000-0 0  1777
2 38833  53.5313 202.9709 0123928  46.1862 135.3892  2.00562069    10
GPS BIIF-4  (PRN 27)    
1 39166C 13023A   22177.71090278  .00000000  00000-0  00000-0 0  1775
2 39166  55.6920 327.4825 0103982  38.4895 244.9256  2.00566131    12
GPS BIIF-5  (PRN 30)    
1 39533C 14008A   22177.71090278  .00000000  00000-0  00000-0 0  1777
2 39533  53.6249 208.4781 0060310 208.9810  73.7566  2.00554214    10
GPS BIIF-6  (PRN 06)    
1 39741C 14026A   22177.71090278 -.00000000  00000-0  00000-0 0  1779
2 39741  56.5725  27.8678 0026614 307.6919 132.4875  2.00555641    17
GPS BIIF-7  (PRN 09)    
1 40105C 14045A   22177.71090278 -.00000000  00000-0  00000-0 0  1776
2 40105  54.6960 146.4356 0019127 108.9036 272.8950  2.00578929    14
GPS BIIF-8  (PRN 03)    
1 40294C 14068A   22177.71090278 -.00000000  00000-0  00000-0 0  1770
2 40294  55.8205  87.5699 0041388  54.6904  54.5720  2.00572526    15
GPS BIIF-9  (PRN 26)    
1 40534C 15013A   22177.71090278  .00000000  00000-0  00000-0 0  1777
2 40534  53.6954 264.3138 0068680  20.4998 348.7363  2.00552306    15
GPS BIIF-10 (PRN 08)    
1 40730C 15033A   22177.71090278  .00000000  00000-0  00000-0 0  1777
2 40730  55.1902 326.3075 0074121   8.2795 241.7913  2.00551559    10
GPS BIIF-11 (PRN 10)    
1 41019C 15062A   22177.71090278 -.00000000  00000-0  00000-0 0  1771
2 41019  55.8089  87.4128 0077891 218.1075 359.6534  2.00563174    12
GPS BIIF-12 (PRN 32)    
1 41328C 16007A   22177.71090278 -.00000000  00000-0  00000-0 0  1774
2 41328  54.9131 147.1099 0062107 230.7944 281.2811  2.00570535    10
GPS BIII-1  (PRN 04)    
1 43873C 18109A   22177.71090278 -.00000000  00000-0  00000-0 0  1776
2 43873  55.0932 149.5305 0019128 196.4788 211.6379  2.00572183    10
GPS BIII-2  (PRN 18)    
1 44506C 19056A   22177.71090278 -.00000000  00000-0  00000-0 0  1772
2 44506  55.6840  28.6788 0024459 177.6895 131.7920  2.00557655    14
GPS BIII-3  (PRN 23)    
1 45854C 20041A   22177.71090278 -.00000000  00000-0  00000-0 0  1775
2 45854  55.5274  85.9505 0022575 177.0819  68.6075  2.00559348    11
GPS BIII-4  (PRN 14)    
1 46826C 20078A   22177.71090278  .00000000  00000-0  00000-0 0  1774
2 46826  54.5589 269.7222 0020714 187.4745  33.4290  2.00565440    12
GPS BIII-5  (PRN 11)    
1 48859C 21054A   22177.71090278 -.00000000  00000-0  00000-0 0  1778
2 48859  55.1897  30.6743 0004763 190.1773 214.4864  2.00573426    11
